[{"OBJECT_NAME":"ONEWEB-0439","OBJECT_ID":"2022-012P","EPOCH":"2026-03-09T22:01:17.565888","MEAN_MOTION":13.10375228,"ECCENTRICITY":0.0001742,"INCLINATION":87.8773,"RA_OF_ASC_NODE":56.0355,"ARG_OF_PERICENTER":87.1621,"MEAN_ANOMALY":272.9706,"EPHEMERIS_TYPE":0,"CLASSIFICATION_TYPE":"U","NORAD_CAT_ID":51635,"ELEMENT_SET_NO":999,"REV_AT_EPOCH":19632,"BSTAR":-0.0014744001,"MEAN_MOTION_DOT":-5.02e-6,"MEAN_MOTION_DDOT":0},{"OBJECT_NAME":"OPS 4682 DEB","OBJECT_ID":"1965-027D","EPOCH":"2026-03-09T22:50:18.506976","MEAN_MOTION":13.14636756,"ECCENTRICITY":0.00216128,"INCLINATION":89.8629,"RA_OF_ASC_NODE":220.946,"ARG_OF_PERICENTER":59.3785,"MEAN_ANOMALY":61.536,"EPHEMERIS_TYPE":0,"CLASSIFICATION_TYPE":"U","NORAD_CAT_ID":1389,"ELEMENT_SET_NO":999,"REV_AT_EPOCH":89764,"BSTAR":0.0020373573,"MEAN_MOTION_DOT":7.67e-6,"MEAN_MOTION_DDOT":0}]
